IRIDIUM 112             
1 41925U 17003J   24323.75256883  .00000214  00000+0  69331-4 0  9992
2 41925  86.3946 328.7805 0002479  98.8749 261.2727 14.34216339410827
IRIDIUM 111             
1 41926U 17003K   24323.32128078  .00000244  00000+0  79966-4 0  9998
2 41926  86.3949 329.0188 0002398  90.0661 270.0810 14.34217510410717
IRIDIUM 113             
1 42803U 17039A   24323.37102628  .00000423  00000+0  14409-3 0  9999
2 42803  86.4023 202.7700 0002367  93.9179 266.2288 14.34213914388652
IRIDIUM 123             
1 42804U 17039B   24323.76133565  .00000552  00000+0  19012-3 0  9995
2 42804  86.3995 234.0540 0002312  77.6463 282.4991 14.34219675387475
IRIDIUM 120             
1 42805U 17039C   24323.78326930  .00000296  00000+0  98530-4 0  9996
2 42805  86.4012 202.4553 0001983  77.3233 282.8184 14.34215995388701
IRIDIUM 115             
1 42806U 17039D   24323.74195771  .00000647  00000+0  18640-3 0  9993
2 42806  86.4548 202.5201 0002354  75.9573 284.1890 14.43282952391262
IRIDIUM 118             
1 42807U 17039E   24323.79305225  .00000553  00000+0  19039-3 0  9995
2 42807  86.3996 234.0415 0002155  86.3918 273.7524 14.34217633387485
IRIDIUM 117             
1 42808U 17039F   24323.11438425  .00000573  00000+0  19756-3 0  9999
2 42808  86.3993 234.2879 0002332  80.1870 279.9589 14.34215504387401
